{"type": "FeatureCollection", "features": [ {"type": "Feature", "properties": {"norad_id": 66857, "name": "STARLINK-36083", "group": "last-30-days", "lat": 15.124334296041123, "lon": 101.41221377524991, "alt_km": 344.1001646276327, "timestamp": "2025-12-18T21:31:49.700220+00:00", "meta": {"OBJECT_NAME": "STARLINK-36083", "OBJECT_ID": "2025-281K", "EPOCH": "2025-12-18T06:00:02.999808", "MEAN_MOTION": 15.75651346, "ECCENTRICITY": 0.00014316, "INCLINATION": 43.0006, "RA_OF_ASC_NODE": 88.4785, "ARG_OF_PERICENTER": 263.6665, "MEAN_ANOMALY": 45.3672, "EPHEMERIS_TYPE": 0, "CLASSIFICATION_TYPE": "U", "NORAD_CAT_ID": 66857, "ELEMENT_SET_NO": 999, "REV_AT_EPOCH": 228, "BSTAR": -0.0058019734, "MEAN_MOTION_DOT": -0.00830825, "MEAN_MOTION_DDOT": 0}, "tle": {"line1": "1 66857U 25281K   25352.25003472 -.00830825  00000+0 -58020-2 0  9994", "line2": "2 66857  43.0006  88.4785 0001431 263.6665  45.3672 15.75651346  2282"}}, "geometry": {"type": "Point", "coordinates": [101.41221377524991, 15.124334296041123]}}, {"type": "Feature", "properties": {"norad_id": 66858, "name": "STARLINK-35118", "group": "last-30-days", "lat": 16.393098085945592, "lon": 102.94959608926449, "alt_km": 343.6973078559058, "timestamp": "2025-12-18T21:31:49.700229+00:00", "meta": {"OBJECT_NAME": "STARLINK-35118", "OBJECT_ID": "2025-281L", "EPOCH": "2025-12-18T06:00:02.999808", "MEAN_MOTION": 15.7549725, "ECCENTRICITY": 0.00014287, "INCLINATION": 43.0008, "RA_OF_ASC_NODE": 88.4733, "ARG_OF_PERICENTER": 261.949, "MEAN_ANOMALY": 49.1054, "EPHEMERIS_TYPE": 0, "CLASSIFICATION_TYPE": "U", "NORAD_CAT_ID": 66858, "ELEMENT_SET_NO": 999, "REV_AT_EPOCH": 207, "BSTAR": -0.0045704813, "MEAN_MOTION_DOT": -0.00663197, "MEAN_MOTION_DDOT": 0}, "tle": {"line1": "1 66858U 25281L   25352.25003472 -.00663197  00000+0 -45705-2 0  9997", "line2": "2 66858  43.0008  88.4733 0001428 261.9490  49.1054 15.75497250  2076"}}, "geometry": {"type": "Point", "coordinates": [102.94959608926449, 16.393098085945592]}}, {"type": "Feature", "properties": {"norad_id": 66859, "name": "STARLINK-35646", "group": "last-30-days", "lat": 17.66255535998123, "lon": 104.5225476656818, "alt_km": 342.99523143535316, "timestamp": "2025-12-18T21:31:49.700245+00:00", "meta": {"OBJECT_NAME": "STARLINK-35646", "OBJECT_ID": "2025-281M", "EPOCH": "2025-12-18T06:00:02.999808", "MEAN_MOTION": 15.75329179, "ECCENTRICITY": 0.00013359, "INCLINATION": 43.0007, "RA_OF_ASC_NODE": 88.4682, "ARG_OF_PERICENTER": 270.5899, "MEAN_ANOMALY": 42.486, "EPHEMERIS_TYPE": 0, "CLASSIFICATION_TYPE": "U", "NORAD_CAT_ID": 66859, "ELEMENT_SET_NO": 999, "REV_AT_EPOCH": 228, "BSTAR": -0.0031156387, "MEAN_MOTION_DOT": -0.00459713, "MEAN_MOTION_DDOT": 0}, "tle": {"line1": "1 66859U 25281M   25352.25003472 -.00459713  00000+0 -31156-2 0  9990", "line2": "2 66859  43.0007  88.4682 0001335 270.5899  42.4860 15.75329179  2283"}}, "geometry": {"type": "Point", "coordinates": [104.5225476656818, 17.66255535998123]}}, {"type": "Feature", "properties": {"norad_id": 66860, "name": "STARLINK-35987", "group": "last-30-days", "lat": 23.72037276746724, "lon": 112.65038752092897, "alt_km": 341.4476922421936, "timestamp": "2025-12-18T21:31:49.700257+00:00", "meta": {"OBJECT_NAME": "STARLINK-35987", "OBJECT_ID": "2025-281N", "EPOCH": "2025-12-18T06:00:02.999808", "MEAN_MOTION": 15.75053012, "ECCENTRICITY": 0.00013097, "INCLINATION": 43.0005, "RA_OF_ASC_NODE": 88.4434, "ARG_OF_PERICENTER": 262.1229, "MEAN_ANOMALY": 60.6728, "EPHEMERIS_TYPE": 0, "CLASSIFICATION_TYPE": "U", "NORAD_CAT_ID": 66860, "ELEMENT_SET_NO": 999, "REV_AT_EPOCH": 228, "BSTAR": -0.00029779935, "MEAN_MOTION_DOT": -0.00046, "MEAN_MOTION_DDOT": 0}, "tle": {"line1": "1 66860U 25281N   25352.25003472 -.00046000  00000+0 -29780-3 0  9994", "line2": "2 66860  43.0005  88.4434 0001309 262.1229  60.6728 15.75053012  2288"}}, "geometry": {"type": "Point", "coordinates": [112.65038752092897, 23.72037276746724]}}, {"type": "Feature", "properties": {"norad_id": 66861, "name": "STARLINK-35991", "group": "last-30-days", "lat": 20.20150700584739, "lon": 107.78931912565402, "alt_km": 342.1920095659625, "timestamp": "2025-12-18T21:31:49.700267+00:00", "meta": {"OBJECT_NAME": "STARLINK-35991", "OBJECT_ID": "2025-281P", "EPOCH": "2025-12-18T06:00:02.999808", "MEAN_MOTION": 15.75072264, "ECCENTRICITY": 0.00017347, "INCLINATION": 43.0008, "RA_OF_ASC_NODE": 88.4584, "ARG_OF_PERICENTER": 255.7089, "MEAN_ANOMALY": 61.3304, "EPHEMERIS_TYPE": 0, "CLASSIFICATION_TYPE": "U", "NORAD_CAT_ID": 66861, "ELEMENT_SET_NO": 999, "REV_AT_EPOCH": 228, "BSTAR": -0.00036694544, "MEAN_MOTION_DOT": -0.0005655, "MEAN_MOTION_DDOT": 0}, "tle": {"line1": "1 66861U 25281P   25352.25003472 -.00056550  00000+0 -36695-3 0  9999", "line2": "2 66861  43.0008  88.4584 0001734 255.7089  61.3304 15.75072264  2280"}}, "geometry": {"type": "Point", "coordinates": [107.78931912565402, 20.20150700584739]}}, {"type": "Feature", "properties": {"norad_id": 66862, "name": "STARLINK-35974", "group": "last-30-days", "lat": 18.992433200420592, "lon": 106.21221869797303, "alt_km": 342.3363543729338, "timestamp": "2025-12-18T21:31:49.700300+00:00", "meta": {"OBJECT_NAME": "STARLINK-35974", "OBJECT_ID": "2025-281Q", "EPOCH": "2025-12-18T06:00:02.999808", "MEAN_MOTION": 15.7512144, "ECCENTRICITY": 0.0001965, "INCLINATION": 43.0009, "RA_OF_ASC_NODE": 88.4636, "ARG_OF_PERICENTER": 264.8145, "MEAN_ANOMALY": 50.2692, "EPHEMERIS_TYPE": 0, "CLASSIFICATION_TYPE": "U", "NORAD_CAT_ID": 66862, "ELEMENT_SET_NO": 999, "REV_AT_EPOCH": 218, "BSTAR": -0.00071787409, "MEAN_MOTION_DOT": -0.00109729, "MEAN_MOTION_DDOT": 0}, "tle": {"line1": "1 66862U 25281Q   25352.25003472 -.00109729  00000+0 -71787-3 0  9998", "line2": "2 66862  43.0009  88.4636 0001965 264.8145  50.2692 15.75121440  2187"}}, "geometry": {"type": "Point", "coordinates": [106.21221869797303, 18.992433200420592]}}, {"type": "Feature", "properties": {"norad_id": 66863, "name": "STARLINK-36134", "group": "last-30-days", "lat": 21.390902178246733, "lon": 109.38427171789925, "alt_km": 341.9168026967491, "timestamp": "2025-12-18T21:31:49.700310+00:00", "meta": {"OBJECT_NAME": "STARLINK-36134", "OBJECT_ID": "2025-281R", "EPOCH": "2025-12-18T06:00:02.999808", "MEAN_MOTION": 15.75058183, "ECCENTRICITY": 0.00014816, "INCLINATION": 43.0006, "RA_OF_ASC_NODE": 88.4536, "ARG_OF_PERICENTER": 256.4015, "MEAN_ANOMALY": 62.5699, "EPHEMERIS_TYPE": 0, "CLASSIFICATION_TYPE": "U", "NORAD_CAT_ID": 66863, "ELEMENT_SET_NO": 999, "REV_AT_EPOCH": 228, "BSTAR": -0.0003138069, "MEAN_MOTION_DOT": -0.00048445, "MEAN_MOTION_DDOT": 0}, "tle": {"line1": "1 66863U 25281R   25352.25003472 -.00048445  00000+0 -31381-3 0  9992", "line2": "2 66863  43.0006  88.4536 0001481 256.4015  62.5699 15.75058183  2287"}}, "geometry": {"type": "Point", "coordinates": [109.38427171789925, 21.390902178246733]}}, {"type": "Feature", "properties": {"norad_id": 66864, "name": "STARLINK-36070", "group": "last-30-days", "lat": 22.573266531593177, "lon": 111.01635799642223, "alt_km": 341.4743480145444, "timestamp": "2025-12-18T21:31:49.700320+00:00", "meta": {"OBJECT_NAME": "STARLINK-36070", "OBJECT_ID": "2025-281S", "EPOCH": "2025-12-18T06:00:02.999808", "MEAN_MOTION": 15.75055765, "ECCENTRICITY": 0.00014673, "INCLINATION": 43.0008, "RA_OF_ASC_NODE": 88.4485, "ARG_OF_PERICENTER": 274.1986, "MEAN_ANOMALY": 46.6893, "EPHEMERIS_TYPE": 0, "CLASSIFICATION_TYPE": "U", "NORAD_CAT_ID": 66864, "ELEMENT_SET_NO": 999, "REV_AT_EPOCH": 231, "BSTAR": -0.00027389399, "MEAN_MOTION_DOT": -0.00042369, "MEAN_MOTION_DDOT": 0}, "tle": {"line1": "1 66864U 25281S   25352.25003472 -.00042369  00000+0 -27389-3 0  9995", "line2": "2 66864  43.0008  88.4485 0001467 274.1986  46.6893 15.75055765  2317"}}, "geometry": {"type": "Point", "coordinates": [111.01635799642223, 22.573266531593177]}}, {"type": "Feature", "properties": {"norad_id": 66865, "name": "STARLINK-36117", "group": "last-30-days", "lat": 24.882506574400328, "lon": 114.36257622992812, "alt_km": 341.47131676248864, "timestamp": "2025-12-18T21:31:49.700329+00:00", "meta": {"OBJECT_NAME": "STARLINK-36117", "OBJECT_ID": "2025-281T", "EPOCH": "2025-12-18T06:00:02.999808", "MEAN_MOTION": 15.75046962, "ECCENTRICITY": 0.00017828, "INCLINATION": 43.0008, "RA_OF_ASC_NODE": 88.4393, "ARG_OF_PERICENTER": 259.1742, "MEAN_ANOMALY": 65.5456, "EPHEMERIS_TYPE": 0, "CLASSIFICATION_TYPE": "U", "NORAD_CAT_ID": 66865, "ELEMENT_SET_NO": 999, "REV_AT_EPOCH": 228, "BSTAR": -0.00015139718, "MEAN_MOTION_DOT": -0.00023677, "MEAN_MOTION_DDOT": 0}, "tle": {"line1": "1 66865U 25281T   25352.25003472 -.00023677  00000+0 -15140-3 0  9999", "line2": "2 66865  43.0008  88.4393 0001782 259.1742  65.5456 15.75046962  2289"}}, "geometry": {"type": "Point", "coordinates": [114.36257622992812, 24.882506574400328]}}, {"type": "Feature", "properties": {"norad_id": 66866, "name": "STARLINK-36126", "group": "last-30-days", "lat": 25.9971697079342, "lon": 116.06397984660981, "alt_km": 341.2961641134343, "timestamp": "2025-12-18T21:31:49.700339+00:00", "meta": {"OBJECT_NAME": "STARLINK-36126", "OBJECT_ID": "2025-281U", "EPOCH": "2025-12-18T06:00:02.999808", "MEAN_MOTION": 15.75046075, "ECCENTRICITY": 0.00015478, "INCLINATION": 43.0006, "RA_OF_ASC_NODE": 88.4343, "ARG_OF_PERICENTER": 255.4044, "MEAN_ANOMALY": 71.2379, "EPHEMERIS_TYPE": 0, "CLASSIFICATION_TYPE": "U", "NORAD_CAT_ID": 66866, "ELEMENT_SET_NO": 999, "REV_AT_EPOCH": 231, "BSTAR": -0.00022631691, "MEAN_MOTION_DOT": -0.00035108, "MEAN_MOTION_DDOT": 0}, "tle": {"line1": "1 66866U 25281U   25352.25003472 -.00035108  00000+0 -22632-3 0  9996", "line2": "2 66866  43.0006  88.4343 0001547 255.4044  71.2379 15.75046075  2313"}}, "geometry": {"type": "Point", "coordinates": [116.06397984660981, 25.9971697079342]}}]}